IRIDIUM 5               
1 24795U 97020D   25198.57465726  .00003840  00000+0  31224-3 0  9991
2 24795  86.3862  69.7153 0109743  30.4866 330.2680 14.94563597490002
IRIDIUM 16              
1 24841U 97030F   25198.51731254  .00000251  00000+0  75488-4 0  9994
2 24841  86.4051 192.5383 0002179  28.8455 331.2863 14.38729841471361
IRIDIUM 911             
1 24842U 97030G   25198.46092545  .00000440  00000+0  11388-3 0  9990
2 24842  86.4477 191.2998 0014316   6.3253 353.8128 14.47663144479461
IRIDIUM 17              
1 24870U 97034B   25198.45363017  .00000273  00000+0  84048-4 0  9997
2 24870  86.3945 222.0258 0000684  74.3039 285.8234 14.37845504467935
IRIDIUM 920             
1 24871U 97034C   25198.48809072  .00000297  00000+0  85140-4 0  9997
2 24871  86.3981 201.1803 0011109 353.3382   6.7669 14.41551318470944
